{
  "type": "FeatureCollection",
  "features": [
    {
      "type": "Feature",
      "properties": {
        "norad_id": 22490,
        "name": "SCD 1",
        "group": "resource",
        "lat": 19.775211827003496,
        "lon": 33.905266143964155,
        "alt_km": 761.9731338005513,
        "timestamp": "2025-12-02T06:27:52.677408+00:00",
        "meta_object_name": "SCD 1",
        "meta_object_id": "1993-009B",
        "meta_epoch": "2025-12-01T08:49:42.756672",
        "meta_mean_motion": 14.45985632,
        "meta_eccentricity": 0.0041904,
        "meta_inclination": 24.971,
        "meta_ra_of_asc_node": 348.8843,
        "meta_arg_of_pericenter": 204.0887,
        "meta_mean_anomaly": 187.0518,
        "meta_ephemeris_type": 0,
        "meta_classification_type": "U",
        "meta_norad_cat_id": 22490,
        "meta_element_set_no": 999,
        "meta_rev_at_epoch": 73245,
        "meta_bstar": 0.0001059001,
        "meta_mean_motion_dot": 5.74e-06,
        "meta_mean_motion_ddot": 0,
        "tle_line1": "1 22490U 93009B   25335.36785598  .00000574  00000+0  10590-3 0  9990",
        "tle_line2": "2 22490  24.9710 348.8843 0041904 204.0887 187.0518 14.45985632732455"
      },
      "geometry": {
        "type": "Point",
        "coordinates": [
          33.905266143964155,
          19.775211827003496
        ]
      }
    },
    {
      "type": "Feature",
      "properties": {
        "norad_id": 25397,
        "name": "TECHSAT 1B (GO-32)",
        "group": "resource",
        "lat": 29.73558703025186,
        "lon": 144.4293819307744,
        "alt_km": 808.6525861822611,
        "timestamp": "2025-12-02T06:27:52.677435+00:00",
        "meta_object_name": "TECHSAT 1B (GO-32)",
        "meta_object_id": "1998-043D",
        "meta_epoch": "2025-12-01T19:38:55.304160",
        "meta_mean_motion": 14.2437191,
        "meta_eccentricity": 0.0002263,
        "meta_inclination": 98.9914,
        "meta_ra_of_asc_node": 318.7794,
        "meta_arg_of_pericenter": 75.2935,
        "meta_mean_anomaly": 284.8494,
        "meta_ephemeris_type": 0,
        "meta_classification_type": "U",
        "meta_norad_cat_id": 25397,
        "meta_element_set_no": 999,
        "meta_rev_at_epoch": 42323,
        "meta_bstar": 6.9899e-05,
        "meta_mean_motion_dot": 1.15e-06,
        "meta_mean_motion_ddot": 0,
        "tle_line1": "1 25397U 98043D   25335.81869565  .00000115  00000+0  69899-4 0  9997",
        "tle_line2": "2 25397  98.9914 318.7794 0002263  75.2935 284.8494 14.24371910423236"
      },
      "geometry": {
        "type": "Point",
        "coordinates": [
          144.4293819307744,
          29.73558703025186
        ]
      }
    },
    {
      "type": "Feature",
      "properties": {
        "norad_id": 25504,
        "name": "SCD 2",
        "group": "resource",
        "lat": 23.792712488631807,
        "lon": -44.69217630330331,
        "alt_km": 736.085917705379,
        "timestamp": "2025-12-02T06:27:52.677451+00:00",
        "meta_object_name": "SCD 2",
        "meta_object_id": "1998-060A",
        "meta_epoch": "2025-12-01T09:10:18.752736",
        "meta_mean_motion": 14.45413177,
        "meta_eccentricity": 0.0016767,
        "meta_inclination": 24.9939,
        "meta_ra_of_asc_node": 211.9299,
        "meta_arg_of_pericenter": 192.3142,
        "meta_mean_anomaly": 329.1568,
        "meta_ephemeris_type": 0,
        "meta_classification_type": "U",
        "meta_norad_cat_id": 25504,
        "meta_element_set_no": 999,
        "meta_rev_at_epoch": 43167,
        "meta_bstar": 8.6174798e-05,
        "meta_mean_motion_dot": 4.91e-06,
        "meta_mean_motion_ddot": 0,
        "tle_line1": "1 25504U 98060A   25335.38216149  .00000491  00000+0  86175-4 0  9995",
        "tle_line2": "2 25504  24.9939 211.9299 0016767 192.3142 329.1568 14.45413177431678"
      },
      "geometry": {
        "type": "Point",
        "coordinates": [
          -44.69217630330331,
          23.792712488631807
        ]
      }
    },
    {
      "type": "Feature",
      "properties": {
        "norad_id": 25757,
        "name": "DLR-TUBSAT",
        "group": "resource",
        "lat": 34.58930938237104,
        "lon": -45.56899964323717,
        "alt_km": 724.9824796099192,
        "timestamp": "2025-12-02T06:27:52.677463+00:00",
        "meta_object_name": "DLR-TUBSAT",
        "meta_object_id": "1999-029B",
        "meta_epoch": "2025-12-01T20:22:57.652032",
        "meta_mean_motion": 14.52350665,
        "meta_eccentricity": 0.0013322,
        "meta_inclination": 98.6554,
        "meta_ra_of_asc_node": 320.0275,
        "meta_arg_of_pericenter": 227.2421,
        "meta_mean_anomaly": 132.7653,
        "meta_ephemeris_type": 0,
        "meta_classification_type": "U",
        "meta_norad_cat_id": 25757,
        "meta_element_set_no": 999,
        "meta_rev_at_epoch": 40460,
        "meta_bstar": 4.915e-05,
        "meta_mean_motion_dot": 1.52e-06,
        "meta_mean_motion_ddot": 0,
        "tle_line1": "1 25757U 99029B   25335.84927838  .00000152  00000+0  49150-4 0  9992",
        "tle_line2": "2 25757  98.6554 320.0275 0013322 227.2421 132.7653 14.52350665404603"
      },
      "geometry": {
        "type": "Point",
        "coordinates": [
          -45.56899964323717,
          34.58930938237104
        ]
      }
    },
    {
      "type": "Feature",
      "properties": {
        "norad_id": 25994,
        "name": "TERRA",
        "group": "resource",
        "lat": 43.043006853007306,
        "lon": -144.13831644346104,
        "alt_km": 684.3412403053198,
        "timestamp": "2025-12-02T06:27:52.677475+00:00",
        "meta_object_name": "TERRA",
        "meta_object_id": "1999-068A",
        "meta_epoch": "2025-12-01T18:52:00.717888",
        "meta_mean_motion": 14.60931484,
        "meta_eccentricity": 0.0003363,
        "meta_inclination": 97.9765,
        "meta_ra_of_asc_node": 27.8716,
        "meta_arg_of_pericenter": 119.9837,
        "meta_mean_anomaly": 356.3412,
        "meta_ephemeris_type": 0,
        "meta_classification_type": "U",
        "meta_norad_cat_id": 25994,
        "meta_element_set_no": 999,
        "meta_rev_at_epoch": 38078,
        "meta_bstar": 0.00012463,
        "meta_mean_motion_dot": 5.66e-06,
        "meta_mean_motion_ddot": 0,
        "tle_line1": "1 25994U 99068A   25335.78611942  .00000566  00000+0  12463-3 0  9992",
        "tle_line2": "2 25994  97.9765  27.8716 0003363 119.9837 356.3412 14.60931484380788"
      },
      "geometry": {
        "type": "Point",
        "coordinates": [
          -144.13831644346104,
          43.043006853007306
        ]
      }
    },
    {
      "type": "Feature",
      "properties": {
        "norad_id": 27004,
        "name": "MAROC-TUBSAT",
        "group": "resource",
        "lat": -61.655479234735054,
        "lon": 163.19947450322042,
        "alt_km": 991.8114738235108,
        "timestamp": "2025-12-02T06:27:52.677487+00:00",
        "meta_object_name": "MAROC-TUBSAT",
        "meta_object_id": "2001-056D",
        "meta_epoch": "2025-12-01T16:50:04.447104",
        "meta_mean_motion": 13.70252049,
        "meta_eccentricity": 0.0019117,
        "meta_inclination": 99.7911,
        "meta_ra_of_asc_node": 143.9532,
        "meta_arg_of_pericenter": 289.5393,
        "meta_mean_anomaly": 87.1751,
        "meta_ephemeris_type": 0,
        "meta_classification_type": "U",
        "meta_norad_cat_id": 27004,
        "meta_element_set_no": 999,
        "meta_rev_at_epoch": 19914,
        "meta_bstar": 3.4234e-05,
        "meta_mean_motion_dot": -1.7e-07,
        "meta_mean_motion_ddot": 0,
        "tle_line1": "1 27004U 01056D   25335.70144036 -.00000017  00000+0  34234-4 0  9996",
        "tle_line2": "2 27004  99.7911 143.9532 0019117 289.5393  87.1751 13.70252049199142"
      },
      "geometry": {
        "type": "Point",
        "coordinates": [
          163.19947450322042,
          -61.655479234735054
        ]
      }
    },
    {
      "type": "Feature",
      "properties": {
        "norad_id": 27424,
        "name": "AQUA",
        "group": "resource",
        "lat": -21.41446163739322,
        "lon": -59.69751161221297,
        "alt_km": 693.0674571902018,
        "timestamp": "2025-12-02T06:27:52.677497+00:00",
        "meta_object_name": "AQUA",
        "meta_object_id": "2002-022A",
        "meta_epoch": "2025-12-01T20:56:50.404704",
        "meta_mean_motion": 14.61765372,
        "meta_eccentricity": 7.05e-05,
        "meta_inclination": 98.4022,
        "meta_ra_of_asc_node": 296.5765,
        "meta_arg_of_pericenter": 105.6685,
        "meta_mean_anomaly": 307.2189,
        "meta_ephemeris_type": 0,
        "meta_classification_type": "U",
        "meta_norad_cat_id": 27424,
        "meta_element_set_no": 999,
        "meta_rev_at_epoch": 25444,
        "meta_bstar": 0.00026013,
        "meta_mean_motion_dot": 1.248e-05,
        "meta_mean_motion_ddot": 0,
        "tle_line1": "1 27424U 02022A   25335.87280561  .00001248  00000+0  26013-3 0  9999",
        "tle_line2": "2 27424  98.4022 296.5765 0000705 105.6685 307.2189 14.61765372254440"
      },
      "geometry": {
        "type": "Point",
        "coordinates": [
          -59.69751161221297,
          -21.41446163739322
        ]
      }
    }
  ]
}